{"type": "FeatureCollection", "features": [ {"type": "Feature", "properties": {"norad_id": 37966, "name": "COSMOS 2251 DEB", "group": "cosmos-2251-debris", "lat": 73.35013210203994, "lon": -48.74475816673279, "alt_km": 516.16050814747, "timestamp": "2025-12-09T11:33:55.198978+00:00", "meta": {"OBJECT_NAME": "COSMOS 2251 DEB", "OBJECT_ID": "1993-036BPR", "EPOCH": "2025-12-04T00:57:24.425856", "MEAN_MOTION": 15.1122342, "ECCENTRICITY": 0.0008631, "INCLINATION": 73.977, "RA_OF_ASC_NODE": 248.6217, "ARG_OF_PERICENTER": 122.4784, "MEAN_ANOMALY": 237.7244, "EPHEMERIS_TYPE": 0, "CLASSIFICATION_TYPE": "U", "NORAD_CAT_ID": 37966, "ELEMENT_SET_NO": 999, "REV_AT_EPOCH": 85211, "BSTAR": 0.0061628837, "MEAN_MOTION_DOT": 0.00105178, "MEAN_MOTION_DDOT": 0}, "tle": {"line1": "1 37966U 93036BPR 25338.03986604  .00105178  00000+0  61629-2 0  9996", "line2": "2 37966  73.9770 248.6217 0008631 122.4784 237.7244 15.11223420852119"}}, "geometry": {"type": "Point", "coordinates": [-48.74475816673279, 73.35013210203994]}}, {"type": "Feature", "properties": {"norad_id": 37967, "name": "COSMOS 2251 DEB", "group": "cosmos-2251-debris", "lat": -49.64314416316926, "lon": -16.86663021626283, "alt_km": 694.1284733038028, "timestamp": "2025-12-09T11:33:55.198988+00:00", "meta": {"OBJECT_NAME": "COSMOS 2251 DEB", "OBJECT_ID": "1993-036BPS", "EPOCH": "2025-12-08T04:28:24.535776", "MEAN_MOTION": 14.40441797, "ECCENTRICITY": 0.01507915, "INCLINATION": 74.0147, "RA_OF_ASC_NODE": 145.8177, "ARG_OF_PERICENTER": 285.5804, "MEAN_ANOMALY": 72.875, "EPHEMERIS_TYPE": 0, "CLASSIFICATION_TYPE": "U", "NORAD_CAT_ID": 37967, "ELEMENT_SET_NO": 999, "REV_AT_EPOCH": 64670, "BSTAR": 0.0018858516, "MEAN_MOTION_DOT": 6.833e-05, "MEAN_MOTION_DDOT": 0}, "tle": {"line1": "1 37967U 93036BPS 25342.18639509  .00006833  00000+0  18859-2 0  9992", "line2": "2 37967  74.0147 145.8177 0150791 285.5804  72.8750 14.40441797646708"}}, "geometry": {"type": "Point", "coordinates": [-16.86663021626283, -49.64314416316926]}}, {"type": "Feature", "properties": {"norad_id": 37968, "name": "COSMOS 2251 DEB", "group": "cosmos-2251-debris", "lat": 39.42770732665532, "lon": -68.55421769297547, "alt_km": 506.56617342759546, "timestamp": "2025-12-09T11:33:55.198999+00:00", "meta": {"OBJECT_NAME": "COSMOS 2251 DEB", "OBJECT_ID": "1993-036BPT", "EPOCH": "2025-12-08T12:58:54.814944", "MEAN_MOTION": 15.00440305, "ECCENTRICITY": 0.0080589, "INCLINATION": 74.0015, "RA_OF_ASC_NODE": 279.7179, "ARG_OF_PERICENTER": 36.5177, "MEAN_ANOMALY": 324.1466, "EPHEMERIS_TYPE": 0, "CLASSIFICATION_TYPE": "U", "NORAD_CAT_ID": 37968, "ELEMENT_SET_NO": 999, "REV_AT_EPOCH": 60156, "BSTAR": 0.0013442, "MEAN_MOTION_DOT": 0.00018125, "MEAN_MOTION_DDOT": 0}, "tle": {"line1": "1 37968U 93036BPT 25342.54091221  .00018125  00000+0  13442-2 0  9996", "line2": "2 37968  74.0015 279.7179 0080589  36.5177 324.1466 15.00440305601569"}}, "geometry": {"type": "Point", "coordinates": [-68.55421769297547, 39.42770732665532]}}, {"type": "Feature", "properties": {"norad_id": 37971, "name": "COSMOS 2251 DEB", "group": "cosmos-2251-debris", "lat": -26.946318826018384, "lon": -123.74682523862607, "alt_km": 690.6212571214974, "timestamp": "2025-12-09T11:33:55.199009+00:00", "meta": {"OBJECT_NAME": "COSMOS 2251 DEB", "OBJECT_ID": "1993-036BPW", "EPOCH": "2025-12-08T11:24:13.177728", "MEAN_MOTION": 14.48533173, "ECCENTRICITY": 0.00678252, "INCLINATION": 73.993, "RA_OF_ASC_NODE": 49.7525, "ARG_OF_PERICENTER": 189.4102, "MEAN_ANOMALY": 170.5792, "EPHEMERIS_TYPE": 0, "CLASSIFICATION_TYPE": "U", "NORAD_CAT_ID": 37971, "ELEMENT_SET_NO": 999, "REV_AT_EPOCH": 60616, "BSTAR": 0.0028347119, "MEAN_MOTION_DOT": 0.00010949, "MEAN_MOTION_DDOT": 0}, "tle": {"line1": "1 37971U 93036BPW 25342.47515252  .00010949  00000+0  28347-2 0  9993", "line2": "2 37971  73.9930  49.7525 0067825 189.4102 170.5792 14.48533173606164"}}, "geometry": {"type": "Point", "coordinates": [-123.74682523862607, -26.946318826018384]}}, {"type": "Feature", "properties": {"norad_id": 37975, "name": "COSMOS 2251 DEB", "group": "cosmos-2251-debris", "lat": 42.35399965412413, "lon": 135.29880438926546, "alt_km": 706.4917898038402, "timestamp": "2025-12-09T11:33:55.199019+00:00", "meta": {"OBJECT_NAME": "COSMOS 2251 DEB", "OBJECT_ID": "1993-036BQA", "EPOCH": "2025-12-08T05:39:54.402048", "MEAN_MOTION": 14.7566979, "ECCENTRICITY": 0.00966582, "INCLINATION": 74.0031, "RA_OF_ASC_NODE": 332.9016, "ARG_OF_PERICENTER": 323.2275, "MEAN_ANOMALY": 36.2292, "EPHEMERIS_TYPE": 0, "CLASSIFICATION_TYPE": "U", "NORAD_CAT_ID": 37975, "ELEMENT_SET_NO": 999, "REV_AT_EPOCH": 69679, "BSTAR": 0.0047432539, "MEAN_MOTION_DOT": 0.00035118, "MEAN_MOTION_DDOT": 0}, "tle": {"line1": "1 37975U 93036BQA 25342.23604632  .00035118  00000+0  47433-2 0  9994", "line2": "2 37975  74.0031 332.9016 0096658 323.2275  36.2292 14.75669790696795"}}, "geometry": {"type": "Point", "coordinates": [135.29880438926546, 42.35399965412413]}}, {"type": "Feature", "properties": {"norad_id": 37978, "name": "COSMOS 2251 DEB", "group": "cosmos-2251-debris", "lat": 72.96079293722447, "lon": 165.68365136676863, "alt_km": 303.90955315948577, "timestamp": "2025-12-09T11:33:55.199029+00:00", "meta": {"OBJECT_NAME": "COSMOS 2251 DEB", "OBJECT_ID": "1993-036BQD", "EPOCH": "2025-11-19T05:08:53.100672", "MEAN_MOTION": 15.61137081, "ECCENTRICITY": 0.00148985, "INCLINATION": 74.0238, "RA_OF_ASC_NODE": 142.2198, "ARG_OF_PERICENTER": 140.9849, "MEAN_ANOMALY": 219.2448, "EPHEMERIS_TYPE": 0, "CLASSIFICATION_TYPE": "U", "NORAD_CAT_ID": 37978, "ELEMENT_SET_NO": 999, "REV_AT_EPOCH": 8032, "BSTAR": 0.0043958825, "MEAN_MOTION_DOT": 0.0039117, "MEAN_MOTION_DDOT": 0}, "tle": {"line1": "1 37978U 93036BQD 25323.21450348  .00391170  00000+0  43959-2 0  9999", "line2": "2 37978  74.0238 142.2198 0014898 140.9849 219.2448 15.61137081 80328"}}, "geometry": {"type": "Point", "coordinates": [165.68365136676863, 72.96079293722447]}}, {"type": "Feature", "properties": {"norad_id": 37985, "name": "COSMOS 2251 DEB", "group": "cosmos-2251-debris", "lat": -41.929312427809336, "lon": -103.19156703231904, "alt_km": 776.9870167065419, "timestamp": "2025-12-09T11:33:55.199039+00:00", "meta": {"OBJECT_NAME": "COSMOS 2251 DEB", "OBJECT_ID": "1993-036BQL", "EPOCH": "2025-12-07T12:56:14.167968", "MEAN_MOTION": 14.35480265, "ECCENTRICITY": 0.00206161, "INCLINATION": 74.0254, "RA_OF_ASC_NODE": 275.2818, "ARG_OF_PERICENTER": 39.5807, "MEAN_ANOMALY": 320.6846, "EPHEMERIS_TYPE": 0, "CLASSIFICATION_TYPE": "U", "NORAD_CAT_ID": 37985, "ELEMENT_SET_NO": 999, "REV_AT_EPOCH": 64842, "BSTAR": 0.0001017568, "MEAN_MOTION_DOT": 2.67e-06, "MEAN_MOTION_DDOT": 0}, "tle": {"line1": "1 37985U 93036BQL 25341.53905287  .00000267  00000+0  10176-3 0  9999", "line2": "2 37985  74.0254 275.2818 0020616  39.5807 320.6846 14.35480265648427"}}, "geometry": {"type": "Point", "coordinates": [-103.19156703231904, -41.929312427809336]}}, {"type": "Feature", "properties": {"norad_id": 37988, "name": "COSMOS 2251 DEB", "group": "cosmos-2251-debris", "lat": -67.28660136171138, "lon": -12.731005822971573, "alt_km": 706.94635406411, "timestamp": "2025-12-09T11:33:55.199048+00:00", "meta": {"OBJECT_NAME": "COSMOS 2251 DEB", "OBJECT_ID": "1993-036BQP", "EPOCH": "2025-12-08T13:00:57.140928", "MEAN_MOTION": 14.6880347, "ECCENTRICITY": 0.0063188, "INCLINATION": 74.0631, "RA_OF_ASC_NODE": 32.1342, "ARG_OF_PERICENTER": 70.9756, "MEAN_ANOMALY": 289.8245, "EPHEMERIS_TYPE": 0, "CLASSIFICATION_TYPE": "U", "NORAD_CAT_ID": 37988, "ELEMENT_SET_NO": 999, "REV_AT_EPOCH": 23334, "BSTAR": 0.0011554, "MEAN_MOTION_DOT": 6.927e-05, "MEAN_MOTION_DDOT": 0}, "tle": {"line1": "1 37988U 93036BQP 25342.54232802  .00006927  00000+0  11554-2 0  9999", "line2": "2 37988  74.0631  32.1342 0063188  70.9756 289.8245 14.68803470233347"}}, "geometry": {"type": "Point", "coordinates": [-12.731005822971573, -67.28660136171138]}}, {"type": "Feature", "properties": {"norad_id": 37993, "name": "COSMOS 2251 DEB", "group": "cosmos-2251-debris", "lat": 10.288648692449314, "lon": -9.845277997478227, "alt_km": 695.5276288504401, "timestamp": "2025-12-09T11:33:55.199059+00:00", "meta": {"OBJECT_NAME": "COSMOS 2251 DEB", "OBJECT_ID": "1993-036BQU", "EPOCH": "2025-12-07T19:19:05.524320", "MEAN_MOTION": 14.59827594, "ECCENTRICITY": 0.00219292, "INCLINATION": 74.0217, "RA_OF_ASC_NODE": 176.3367, "ARG_OF_PERICENTER": 265.5218, "MEAN_ANOMALY": 94.3442, "EPHEMERIS_TYPE": 0, "CLASSIFICATION_TYPE": "U", "NORAD_CAT_ID": 37993, "ELEMENT_SET_NO": 999, "REV_AT_EPOCH": 65245, "BSTAR": 0.0021240239, "MEAN_MOTION_DOT": 0.00010174, "MEAN_MOTION_DDOT": 0}, "tle": {"line1": "1 37993U 93036BQU 25341.80492505  .00010174  00000+0  21240-2 0  9993", "line2": "2 37993  74.0217 176.3367 0021929 265.5218  94.3442 14.59827594652451"}}, "geometry": {"type": "Point", "coordinates": [-9.845277997478227, 10.288648692449314]}}, {"type": "Feature", "properties": {"norad_id": 37994, "name": "COSMOS 2251 DEB", "group": "cosmos-2251-debris", "lat": 43.24687064842432, "lon": 86.08605075247257, "alt_km": 766.8457542013375, "timestamp": "2025-12-09T11:33:55.199069+00:00", "meta": {"OBJECT_NAME": "COSMOS 2251 DEB", "OBJECT_ID": "1993-036BQV", "EPOCH": "2025-12-09T04:16:21.574272", "MEAN_MOTION": 14.39609674, "ECCENTRICITY": 0.0022775, "INCLINATION": 74.037, "RA_OF_ASC_NODE": 282.2654, "ARG_OF_PERICENTER": 2.3613, "MEAN_ANOMALY": 357.7645, "EPHEMERIS_TYPE": 0, "CLASSIFICATION_TYPE": "U", "NORAD_CAT_ID": 37994, "ELEMENT_SET_NO": 999, "REV_AT_EPOCH": 77013, "BSTAR": 0.00054509, "MEAN_MOTION_DOT": 1.682e-05, "MEAN_MOTION_DDOT": 0}, "tle": {"line1": "1 37994U 93036BQV 25343.17802748  .00001682  00000+0  54509-3 0  9999", "line2": "2 37994  74.0370 282.2654 0022775   2.3613 357.7645 14.39609674770136"}}, "geometry": {"type": "Point", "coordinates": [86.08605075247257, 43.24687064842432]}}]}